ONEWEB-0136             
1 47282U 20100AA  24151.00121382  .00004442  00000+0  12290-1 0  9994
2 47282  87.8934 139.6045 0002114  87.2784 272.8587 13.12529999166525
ONEWEB-0137             
1 47283U 20100AB  24150.95840078  .00003011  00000+0  83268-2 0  9993
2 47283  87.8926 139.6385 0002027  83.5448 276.5911 13.12489384166427
ONEWEB-0138             
1 47284U 20100AC  24151.01395048  .00002415  00000+0  66694-2 0  9995
2 47284  87.8922 139.6378 0001880  82.0887 278.0455 13.12516752166513
ONEWEB-0139             
1 47285U 20100AD  24150.90934042 -.00003872  00000+0 -10810-1 0  9994
2 47285  87.8929 139.6319 0001876  88.7661 271.3682 13.12394180166577
ONEWEB-0140             
1 47286U 20100AE  24151.00758614  .00005488  00000+0  15196-1 0  9991
2 47286  87.8929 139.6134 0001503  63.2921 296.8361 13.12506597166547
ONEWEB-0141             
1 47287U 20100AF  24150.88944376  .00000596  00000+0  16593-2 0  9997
2 47287  87.8923 139.6454 0001840  89.3447 270.7891 13.10829648166523
ONEWEB-0142             
1 47288U 20100AG  24151.02109145  .00003843  00000+0  10633-1 0  9998
2 47288  87.8922 139.6060 0002058  78.4384 281.6975 13.12510308166534
ONEWEB-0143             
1 47289U 20100AH  24150.89809684  .00001987  00000+0  54866-2 0  9992
2 47289  87.8922 139.6496 0002050  91.5080 268.6284 13.12458950166496
